{"version": 0.6, "generator": "Overpass API 0.7.57 93a4d346", "osm3s": {"timestamp_osm_base": "2022-05-19T09:18:13Z", "copyright": "The data included in this document is from www.openstreetmap.org. The data is made available under ODbL."}, "elements": [{"type": "node", "id": 27419484, "lat": 53.4008712, "lon": -2.9762946, "tags": {"amenity": "bar", "name": "Blue Angel"}}, {"type": "node", "id": 27419487, "lat": 53.4024214, "lon": -2.9785997, "tags": {"amenity": "bar", "brand": "Revolution", "brand:wikidata": "Q64024398", "name": "Revolution"}}, {"type": "node", "id": 27419489, "lat": 53.4018492, "lon": -2.9789763, "tags": {"amenity": "bar", "name": "Alma de Cuba", "wheelchair": "limited"}}, {"type": "node", "id": 101435072, "lat": 53.4067381, "lon": -2.9871736, "tags": {"addr:postcode": "L2 6PY", "addr:street": "Temple Court", "amenity": "bar", "brand": "Revolution", "brand:wikidata": "Q64024398", "fhrs:id": "497339", "name": "Revolution", "source:addr": "FHRS Open Data"}}, {"type": "node", "id": 101439393, "lat": 53.4008485, "lon": -2.9915992, "tags": {"amenity": "bar", "name": "Revolution de Cuba", "website": "https://www.revoluciondecuba.com/bar/liverpool/"}}, {"type": "node", "id": 277072278, "lat": 53.4018979, "lon": -2.9803966, "tags": {"amenity": "bar", "name": "The Merchant"}}, {"type": "node", "id": 308766469, "lat": 53.4080808, "lon": -2.9872457, "tags": {"addr:housenumber": "10", "addr:street": "Cumberland Street", "amenity": "bar", "contact:facebook": "https://www.facebook.com/masquerade.bar/", "lgbtq": "primary", "name": "Masquerade Bar", "phone": "+44 151 236 7786", "postal_code": "L1 6BU"}}, {"type": "node", "id": 348038381, "lat": 53.401695, "lon": -2.9801654}, {"type": "node", "id": 503689416, "lat": 53.4069291, "lon": -2.9310837, "tags": {"amenity": "bar", "name": "Mango"}}, {"type": "node", "id": 705908217, "lat": 53.401364, "lon": -2.9764495, "tags": {"addr:housename": "The Stables", "addr:postcode": "L1 4BG", "amenity": "bar", "name": "Mojo", "source": "Yahoo"}}, {"type": "node", "id": 824631084, "lat": 53.4038503, "lon": -2.9810494, "tags": {"amenity": "bar", "name": "Krazy House"}}, {"type": "node", "id": 881811213, "lat": 53.4015872, "lon": -2.9815757, "tags": {"amenity": "bar", "name": "The Green Room"}}, {"type": "node", "id": 1139717852, "lat": 53.4033167, "lon": -2.9805536, "tags": {"amenity": "bar", "name": "Modo"}}, {"type": "node", "id": 1139717867, "lat": 53.4029376, "lon": -2.9797436, "tags": {"amenity": "bar", "name": "Baa Bar"}}, {"type": "node", "id": 1651726821, "lat": 53.4037651, "lon": -2.9808597, "tags": {"amenity": "bar", "brand": "Revolution", "brand:wikidata": "Q64024398", "name": "Revolution Bar", "phone": "+44 151 707 1933", "source": "Survey 27 feb 12", "website": "https://www.revolution-bars.co.uk/"}}, {"type": "node", "id": 1994604741, "lat": 53.4072151, "lon": -2.9846109, "tags": {"amenity": "bar", "name": "Kozys Bar", "website": "http://www.kozysbar.co.uk/"}}, {"type": "node", "id": 2018636175, "lat": 53.3816927, "lon": -2.945247, "tags": {"addr:housenumber": "107", "addr:postcode": "L17 8UR", "addr:street": "Lark Lane", "amenity": "bar", "name": "Keith's", "phone": "+44 151 727 4350"}}, {"type": "node", "id": 2018647833, "lat": 53.3806724, "lon": -2.9463895, "tags": {"amenity": "bar", "name": "The Lodge"}}, {"type": "node", "id": 2018647893, "lat": 53.3812265, "lon": -2.9454874, "tags": {"amenity": "bar", "name": "Love and Rockets"}}, {"type": "node", "id": 2018648999, "lat": 53.3823039, "lon": -2.9440553, "tags": {"amenity": "bar", "cuisine": "mexican", "name": "Que Pasa Cantina"}}, {"type": "node", "id": 2267266601, "lat": 53.4002576, "lon": -2.99106, "tags": {"addr:postcode": "L3 4AE", "addr:street": "Salthouse Quay", "amenity": "bar", "brand": "Revolution", "brand:wikidata": "Q64024398", "fhrs:id": "498306", "name": "Revolution", "source:addr": "FHRS Open Data"}}, {"type": "node", "id": 2392560996, "lat": 53.4016113, "lon": -2.9803547}, {"type": "node", "id": 2392560998, "lat": 53.4016332, "lon": -2.9802587}, {"type": "node", "id": 2392560999, "lat": 53.4016422, "lon": -2.9804477}, {"type": "node", "id": 2392561000, "lat": 53.4016527, "lon": -2.9803105}, {"type": "node", "id": 2392561001, "lat": 53.4016452, "lon": -2.980212}, {"type": "node", "id": 2392561002, "lat": 53.4016542, "lon": -2.9802391}, {"type": "node", "id": 2392561003, "lat": 53.4017651, "lon": -2.9803452}, {"type": "node", "id": 2482985461, "lat": 53.4018913, "lon": -2.9828767, "tags": {"addr:city": "Liverpool", "addr:housenumber": "52", "addr:postcode": "L1 5AA", "addr:street": "Duke Street", "amenity": "bar", "internet_access": "yes", "name": "Sound Food & Drink"}}, {"type": "node", "id": 2804280485, "lat": 53.3849255, "lon": -2.9070413, "tags": {"amenity": "bar", "name": "The Other Place"}}, {"type": "node", "id": 3131310991, "lat": 53.4076628, "lon": -2.9877839, "tags": {"addr:housenumber": "8-10", "addr:street": "Stanley Street", "amenity": "bar", "building:level": "-1", "fhrs:id": "665042", "name": "Boutique", "source": "Mapillary", "source:addr": "FHRS Open Data"}}, {"type": "node", "id": 3755488258, "lat": 53.4049315, "lon": -2.9909295, "tags": {"amenity": "bar", "brand": "All Bar One", "brand:wikidata": "Q4728624", "brand:wikipedia": "en:All Bar One", "name": "All Bar One"}}, {"type": "node", "id": 3755497311, "lat": 53.4008432, "lon": -2.975825, "tags": {"amenity": "bar", "name": "Red Door"}}, {"type": "node", "id": 4130621118, "lat": 53.4065956, "lon": -2.9913848, "tags": {"addr:city": "Liverpool", "addr:housenumber": "8", "addr:postcode": "L2 0NE", "addr:street": "Castle Street", "amenity": "bar", "industrial": "machine_shop", "name": "McGuffie & Co", "name:en": "McGuffie & Co Cocktail Bar", "website": "http://mcguffieandco.co.uk/"}}, {"type": "node", "id": 4314101468, "lat": 53.4021526, "lon": -2.969882, "tags": {"amenity": "bar", "name": "Jenever Bar", "wheelchair": "no"}}, {"type": "node", "id": 4339464394, "lat": 53.4067466, "lon": -2.9775305, "tags": {"addr:city": "Liverpool", "addr:housename": "Grand Central", "addr:postcode": "L3 5GA", "addr:street": "Hilbre Street", "amenity": "bar", "name": "Dough Bar"}}, {"type": "node", "id": 4402565593, "lat": 53.4053354, "lon": -2.9911746, "tags": {"amenity": "bar", "name": "Cornmarket", "name:en": "Cornmarket"}}, {"type": "node", "id": 4402567190, "lat": 53.4043954, "lon": -2.9828196, "tags": {"addr:housenumber": "35", "addr:street": "School Lane", "amenity": "bar", "internet_access": "wlan", "name": "Brass Monkey", "name:en": "Brass Monkey"}}, {"type": "node", "id": 4417944954, "lat": 53.4050837, "lon": -2.9661891, "tags": {"amenity": "bar", "name": "Courtyard Bar"}}, {"type": "node", "id": 4443832459, "lat": 53.4059991, "lon": -2.9777488, "tags": {"addr:city": "Liverpool", "addr:housename": "Grand Central", "addr:postcode": "L3 5LX", "addr:street": "Bolton Street", "amenity": "bar", "name": "Riley's Sports Bar", "opening_hours": "Mo-Sa 11:00-00:00; Su 11:00-23:00", "operator": "Riley's", "smoking": "no", "sport": "billiards"}}, {"type": "node", "id": 4484185003, "lat": 53.3373311, "lon": -2.8550808, "tags": {"amenity": "bar", "name": "Go Bar & Kitchen"}}, {"type": "node", "id": 4484185005, "lat": 53.3372222, "lon": -2.8546678, "tags": {"amenity": "bar", "name": "Premium Lounge"}}, {"type": "node", "id": 4501083387, "lat": 53.4029872, "lon": -2.9882663, "tags": {"amenity": "bar", "name": "Bierkeller"}}, {"type": "node", "id": 4501133096, "lat": 53.4037137, "lon": -2.9888415, "tags": {"amenity": "bar", "name": "Thaikhun"}}, {"type": "node", "id": 4501133120, "lat": 53.4036593, "lon": -2.9838339, "tags": {"amenity": "bar", "name": "Roxy Ball Room", "toilets": "yes", "toilets:wheelchair": "yes", "wheelchair": "yes"}}, {"type": "node", "id": 4515273806, "lat": 53.4019538, "lon": -2.9761731, "tags": {"addr:city": "Liverpool", "addr:housenumber": "126", "addr:postcode": "L1 4JA", "addr:street": "Bold Street", "alt_name": "Cafe Tabac", "amenity": "bar", "fhrs:id": "496083", "fhrs:local_authority_id": "PI/000013869", "level": "0", "name": "Bar Tabac", "smoking": "outside"}}, {"type": "node", "id": 4516777645, "lat": 53.4024013, "lon": -2.984039, "tags": {"amenity": "bar", "name": "Filter and Fox", "wheelchair": "no"}}, {"type": "node", "id": 4546774611, "lat": 53.402776, "lon": -2.9787251, "tags": {"addr:street": "Wood Street", "amenity": "bar", "name": "Woody's Sports & Karaoke Bar", "smoking": "outside"}}, {"type": "node", "id": 4683836396, "lat": 53.4022661, "lon": -2.9834184, "tags": {"amenity": "bar", "name": "The Brunch Club", "wheelchair": "no"}}, {"type": "node", "id": 4683836398, "lat": 53.401534, "lon": -2.9774559, "tags": {"amenity": "bar", "name": "La'go"}}, {"type": "node", "id": 4890012523, "lat": 53.4066316, "lon": -2.9914613, "tags": {"amenity": "bar", "name": "Black Barrel"}}, {"type": "node", "id": 5214540884, "lat": 53.38052, "lon": -2.946582, "tags": {"addr:street": "Lark Lane", "amenity": "bar", "name": "Monkey Grinder"}}, {"type": "node", "id": 5214540885, "lat": 53.3804894, "lon": -2.9466404, "tags": {"addr:street": "Lark Lane", "amenity": "bar", "operator": "Writer's Block"}}, {"type": "node", "id": 5276924329, "lat": 53.4031303, "lon": -2.9800387, "tags": {"addr:city": "Liverpool", "addr:housenumber": "46-50", "addr:postcode": "L1 4AQ", "addr:street": "Wood Street", "amenity": "bar", "name": "Boston Pool Loft", "phone": "+44 151 305 2426", "website": "http://bostonpoolloft.co.uk/"}}, {"type": "node", "id": 5390278587, "lat": 53.4024693, "lon": -2.9829588, "tags": {"addr:city": "Liverpool", "addr:housenumber": "28", "addr:postcode": "L1 4JH", "addr:street": "Gradwell Street", "amenity": "bar", "name": "Pattersons", "opening_hours": "Mo-Su 12:00-00:00", "outdoor_seating": "yes", "phone": "+44 151 707 6367", "website": "http://www.pattersonsliverpool.com/"}}, {"type": "node", "id": 5612684977, "lat": 53.4065974, "lon": -2.9837764, "tags": {"amenity": "bar", "name": "Sweeney's Bar"}}, {"type": "node", "id": 5613166126, "lat": 53.4037645, "lon": -2.9740723, "tags": {"amenity": "bar", "name": "Voodoo Lounge"}}, {"type": "node", "id": 5861451936, "lat": 53.4082774, "lon": -2.9764515, "tags": {"amenity": "bar", "name": "Castaway"}}, {"type": "node", "id": 5861452517, "lat": 53.4075905, "lon": -2.9809129, "tags": {"amenity": "bar", "name": "Courtyard"}}, {"type": "node", "id": 5863833650, "lat": 53.4084403, "lon": -2.990989, "tags": {"addr:housename": "Tempest Building", "addr:postcode": "L2 2DT", "addr:street": "Tithebarn Street", "amenity": "bar", "fhrs:id": "927895", "name": "Hus", "source:addr": "FHRS Open Data"}}, {"type": "node", "id": 5865641966, "lat": 53.4035065, "lon": -2.9794323, "tags": {"addr:city": "Liverpool", "addr:housenumber": "52", "addr:postcode": "L1 4EA", "addr:street": "Bold Street", "amenity": "bar", "brand": "Coyote Ugly Saloon", "brand:wikidata": "Q4131558", "brand:wikipedia": "en:Coyote Ugly Saloon", "fhrs:id": "1048272", "fhrs:local_authority_id": "PI/000272125", "name": "Coyote Ugly", "website": "https://www.coyoteuglysaloon.com/liverpool/"}}, {"type": "node", "id": 5870696560, "lat": 53.4057638, "lon": -2.9906982, "tags": {"amenity": "bar", "name": "Veeno"}}, {"type": "node", "id": 5871157722, "lat": 53.4064767, "lon": -2.9883266, "tags": {"amenity": "bar", "name": "Wall of Fame"}}, {"type": "node", "id": 5871157989, "lat": 53.4078391, "lon": -2.9924684, "tags": {"amenity": "bar", "name": "Vincent"}}, {"type": "node", "id": 5871159302, "lat": 53.4079378, "lon": -2.9882997, "tags": {"amenity": "bar", "name": "Ghoulies Horror Bar"}}, {"type": "node", "id": 5871727258, "lat": 53.4005031, "lon": -2.9764376, "tags": {"amenity": "bar", "name": "Bunch"}}, {"type": "node", "id": 5871727883, "lat": 53.4017347, "lon": -2.9728733, "tags": {"amenity": "bar", "name": "Tom Thumb"}}, {"type": "node", "id": 5871728986, "lat": 53.400146, "lon": -2.9761027, "tags": {"amenity": "bar", "name": "Chamber 36"}}, {"type": "node", "id": 6027632006, "lat": 53.4022993, "lon": -2.9141956, "tags": {"addr:city": "liverpool", "addr:housename": "Long Lane", "addr:street": "Long Lane", "amenity": "bar", "brewery": "yes", "name": "Olive Bank Community Club", "outdoor_seating": "yes", "smoking": "outside"}}, {"type": "node", "id": 6240702554, "lat": 53.4011337, "lon": -2.9690906, "tags": {"amenity": "bar", "name": "Music Room"}}, {"type": "node", "id": 6331369615, "lat": 53.3814201, "lon": -2.9456653, "tags": {"amenity": "bar", "name": "Polidor"}}, {"type": "node", "id": 6366040785, "lat": 53.4005407, "lon": -2.9764186, "tags": {"addr:housenumber": "48", "addr:postcode": "L1 4JQ", "addr:street": "Berry Street", "amenity": "bar", "name": "Berry & Rye", "opening_hours": "Mo-Su 17:00-02:00", "phone": "+447305079675"}}, {"type": "node", "id": 6366040885, "lat": 53.4025183, "lon": -2.9808399, "tags": {"addr:housenumber": "40", "addr:postcode": "L1 4BE", "addr:street": "Seel Street", "amenity": "bar", "name": "PHASE one", "name:en": "PHASE ONE", "opening_hours": "Mo-Su 12:00-00:00"}}, {"type": "node", "id": 6366040886, "lat": 53.4019784, "lon": -2.984701, "tags": {"addr:housenumber": "1", "addr:postcode": "L1 5FB", "addr:street": "Campbell Square", "amenity": "bar", "name": "Furnivals well", "name:en": "Furnivals Well"}}, {"type": "node", "id": 6512256293, "lat": 53.4059202, "lon": -2.994019, "tags": {"amenity": "bar", "name": "Africa House Roof Bar"}}, {"type": "node", "id": 6705014004, "lat": 53.4055593, "lon": -2.9905222, "tags": {"addr:city": "Liverpool", "addr:housenumber": "52-54", "addr:postcode": "L2 7LQ", "addr:street": "Castle Street", "amenity": "bar", "name": "Liverpool Gin Distillery", "website": "https://liverpoolgindistillery.com", "wheelchair": "yes"}}, {"type": "node", "id": 6705014006, "lat": 53.4030551, "lon": -2.9785294, "tags": {"addr:city": "Liverpool", "addr:housenumber": "70", "addr:postcode": "L1 4HR", "addr:street": "Bold Street", "alt_name": "Ropes and Twines", "amenity": "bar", "cuisine": "coffee_shop", "fhrs:id": "1086096", "fhrs:local_authority_id": "PI/000271409", "name": "Ropes & Twines", "website": "http://www.ropes-and-twines.co.uk/"}}, {"type": "node", "id": 6807297586, "lat": 53.4037203, "lon": -2.9793748, "tags": {"addr:city": "Liverpool", "addr:housenumber": "17-19", "addr:postcode": "L1 4DN", "addr:street": "Bold Street", "amenity": "bar", "fhrs:id": "1243914", "fhrs:local_authority_id": "71846", "name": "Bundobust"}}, {"type": "node", "id": 6807322786, "lat": 53.4044316, "lon": -2.9819287, "tags": {"amenity": "bar", "name": "Head of Steam"}}, {"type": "node", "id": 6814125085, "lat": 53.3934568, "lon": -2.9808636, "tags": {"amenity": "bar", "name": "Gibberish"}}, {"type": "node", "id": 6814303886, "lat": 53.3977952, "lon": -2.9830229, "tags": {"addr:street": "Kings Dock Street", "amenity": "bar", "name": "Black Lodge Brewery"}}, {"type": "node", "id": 6825321285, "lat": 53.4036156, "lon": -2.9806747, "tags": {"amenity": "bar", "name": "Mulligan's of Liverpool"}}, {"type": "node", "id": 6829837286, "lat": 53.3936176, "lon": -2.9780244, "tags": {"amenity": "bar", "name": "Peaky Blinders Liverpool"}}, {"type": "node", "id": 7098328974, "lat": 53.3969135, "lon": -2.9811477, "tags": {"amenity": "bar", "name": "Hobo Kiosk", "outdoor_seating": "no", "wheelchair": "no"}}, {"type": "node", "id": 7098378338, "lat": 53.4012908, "lon": -2.9720827, "tags": {"addr:city": "Liverpool", "addr:housenumber": "24", "addr:postcode": "L1 9AX", "addr:street": "Hardman Street", "amenity": "bar", "name": "Buyers Club", "outdoor_seating": "yes", "website": "http://buyers-club.co.uk/"}}, {"type": "node", "id": 7770768821, "lat": 53.3939315, "lon": -2.9790695, "tags": {"addr:city": "Liverpool", "addr:housenumber": "29-31", "addr:postcode": "L8 5RN", "addr:street": "Parliament Street", "amenity": "bar", "name": "Birdie's Bar and Barbeque", "opening_hours": "Mo-Su 12:00-01:00"}}, {"type": "node", "id": 8792415136, "lat": 53.3809134, "lon": -2.9464193, "tags": {"amenity": "bar", "name": "Ink in the Well"}}, {"type": "node", "id": 8792415137, "lat": 53.3807079, "lon": -2.9466408, "tags": {"amenity": "bar", "name": "Bar 25"}}, {"type": "node", "id": 9399203618, "lat": 53.4024121, "lon": -2.9785848, "tags": {"addr:housenumber": "41", "addr:street": "Fleet Street", "amenity": "bar", "name": "Black Rabbit", "name:en": "Black Rabbit Shot Co."}}, {"type": "node", "id": 9399209318, "lat": 53.4024404, "lon": -2.9801077, "tags": {"addr:housenumber": "39", "addr:street": "Seel Street", "amenity": "bar", "name": "The Highball Club"}}, {"type": "node", "id": 9420269417, "lat": 53.4004165, "lon": -2.9789058, "tags": {"addr:housenumber": "12", "addr:postcode": "L1 5BF", "addr:street": "Madison Square", "amenity": "bar", "name": "A Tavola", "name:en": "A Tavola Italian Deli, Wine Bar and Cooking School"}}, {"type": "node", "id": 9683811017, "lat": 53.3995758, "lon": -2.9916732, "tags": {"addr:housenumber": "Unit 3a", "addr:postcode": "L3 4AD", "addr:street": "Britannia Pavillion", "amenity": "bar", "name": "The One O'Clock Gun", "website": "https://theoneoclockgun.pub/"}}, {"type": "way", "id": 230811257, "nodes": [2392560999, 2392561003, 348038381, 2392561001, 2392561002, 2392560998, 2392561000, 2392560996, 2392560999], "tags": {"amenity": "bar", "building": "yes", "name": "Santa Chupitos", "opening_hours": "Mo-Su 00:00-03:00,17:00-24:00;Tu-Th 00:00-02:00,17:00-24:00", "website": "http://www.santachupitos.com/"}}]}